ATLAS CENTAUR 2         
1 00694U 63047A   26092.58086051  .00003323  00000+0  39320-3 0  9991
2 00694  30.3579  62.1151 0547262 290.8544  63.4303 14.12172565135004
THOR AGENA D R/B        
1 00733U 64002A   26092.87301684  .00000307  00000+0  12664-3 0  9992
2 00733  99.1210 107.5280 0032822 186.3586 173.7185 14.34033598241766
SL-3 R/B                
1 00877U 64053B   26092.84901463  .00000400  00000+0  10145-3 0  9991
2 00877  65.0756 260.4035 0080570 284.6183  74.5993 14.61386030270328
SL-8 R/B                
1 02802U 67045B   26092.86478935  .00000425  00000+0  12506-3 0  9990
2 02802  74.0104 302.9411 0065004 303.8934  55.6051 14.45641967 92511
SL-8 R/B                
1 03230U 68040B   26092.86629005  .00005925  00000+0  43545-3 0  9995
2 03230  74.0288 264.2830 0023354  78.2368 282.1439 15.03431381 93645
OAO 2                   
1 03597U 68110A   26092.79064405  .00000299  00000+0  85585-4 0  9998
2 03597  34.9923 130.6571 0005310  25.4659 334.6293 14.47321708 22594
ISIS 1                  
1 03669U 69009A   26092.52632885  .00000170  00000+0  10859-3 0  9999
2 03669  88.4496 152.7063 1707811  41.0778 330.6967 11.30420283351222
SERT 2                  
1 04327U 70009A   26092.57968780  .00000012  00000+0  73406-4 0  9997
2 04327  99.2792  34.3701 0005731 101.1851  72.0799 13.58732104783137
SL-3 R/B                
1 05118U 71028B   26092.80443811  .00064159  00000+0  68945-3 0  9990
2 05118  81.2384  22.2007 0015126 187.1674 172.9366 15.63367832992430
ASTEX 1                 
1 05560U 71089A   26092.61794216  .00000584  00000+0  14833-3 0  9994
2 05560  92.7084 159.4926 0015794  12.6420 347.5179 14.50794388865773
SL-8 R/B                
1 05730U 71119B   26092.79653155  .00008816  00000+0  46102-3 0  9992
2 05730  73.8844 130.6440 0546131  92.1664 274.2098 14.38311824658957
OAO 3 (COPERNICUS)      
1 06153U 72065A   26092.45770939  .00000479  00000+0  10255-3 0  9993
2 06153  35.0046 161.8953 0006762 350.0235  26.9623 14.60017606849670
ATLAS CENTAUR R/B       
1 06155U 72065B   26092.47626786  .00001855  00000+0  25506-3 0  9991
2 06155  35.0007 166.3462 0033805 211.3969 148.4712 14.77758247844782
SL-8 R/B                
1 08459U 75112B   26092.64003047  .00000269  00000+0  97156-4 0  9993
2 08459  74.0624 334.8579 0014656  58.3368 301.9214 14.38217460635319
SL-3 R/B                
1 10114U 77057B   26092.79927980  .00021404  00000+0  43655-3 0  9999
2 10114  97.5797 265.7985 0007103 187.0239 173.0911 15.46210787672059
SEASAT 1                
1 10967U 78064A   26092.49871470  .00000446  00000+0  16298-3 0  9999
2 10967 108.0069 175.4555 0002707 273.8609  86.2227 14.46181025509959
SL-14 R/B               
1 11267U 79011B   26092.65832233  .00000897  00000+0  86029-4 0  9998
2 11267  82.5217  73.8196 0015487 343.2486  16.8220 14.91941010532350
